LEMUR-2-ALISIA          
1 62706U 25009DB  26080.20199529  .00008154  00000+0  63739-3 0  9998
2 62706  97.6994 163.0663 0006622 135.7187 224.4568 15.01325754 86952
ICEYE-X44               
1 62707U 25009DC  26080.18198373  .00003163  00000+0  29102-3 0  9993
2 62707  97.7094 160.7266 0002787  83.1740 276.9798 14.95463504 86783
CENTAURI-7              
1 62708U 25009DD  26080.19364908  .00003311  00000+0  29152-3 0  9994
2 62708  97.7124 161.6152 0002077 112.7721 247.3721 14.97168764 64294
CONNECTA IOT-6          
1 62709U 25009DE  26080.19548090  .00000789  00000+0  79263-4 0  9996
2 62709  97.7060 160.2391 0002952  82.1280 278.0275 14.94009906 64223
FIREFLY-3               
1 62710U 25009DF  26080.17316729  .00001484  00000+0  14856-3 0  9997
2 62710  97.7095 160.1555 0006387  98.6667 261.5277 14.92869440 64203
LEMUR-2-ROUNDTRIPPER    
1 62711U 25009DG  26080.21850176  .00009344  00000+0  71158-3 0  9993
2 62711  97.7285 163.1241 0006121  91.9392 268.2533 15.02281302 64416
LEMUR-2-MYNAMEISJEFF    
1 62712U 25009DH  26080.15041946  .00009471  00000+0  72116-3 0  9990
2 62712  97.7330 163.3851 0005377 114.3228 245.8559 15.02288562 64400
SATGUS                  
1 62713U 25009DJ  26080.24763005  .00009451  00000+0  76327-3 0  9994
2 62713  97.7120 162.4038 0005456  63.5718 296.6064 15.00034244 64377
CENTAURI-8              
1 62714U 25009DK  26080.15422963  .00003777  00000+0  33055-3 0  9996
2 62714  97.7069 161.4601 0002863  97.1179 263.0368 14.97312505 64300
CONNECTA IOT-7          
1 62715U 25009DL  26080.16921634  .00001357  00000+0  13258-3 0  9992
2 62715  97.7114 160.5495 0002757 110.6775 249.4741 14.93990951 64203
PRSC-EO1                
1 62725U 25012A   26077.33690292  .00006910  00000+0  34535-3 0  9996
2 62725  97.4293 151.5450 0006544 189.6633 170.4476 15.17752694 64415
2025-012B               
1 62726U 25012B   26080.16335739  .00005636  00000+0  26210-3 0  9999
2 62726  97.4289 154.5046 0008296 215.2022 144.8666 15.20327739 64877
2025-012C               
1 62727U 25012C   26080.25580455  .00013691  00000+0  54125-3 0  9993
2 62727  97.4307 156.2445 0007472 205.3357 154.7516 15.25575660 64975
2025-013A               
1 62729U 25013A   26080.23055037  .00038584  00000+0  13259-2 0  9997
2 62729  97.6368 256.0726 0010323 242.8665 117.1523 15.29954370 64484
2025-013B               
1 62730U 25013B   26080.26648966  .00004759  00000+0  29107-3 0  9998
2 62730  97.6487 249.6210 0012328 314.7724  45.2501 15.10665174 64057
2025-013C               
1 62731U 25013C   26080.25062796  .00003854  00000+0  23660-3 0  9992
2 62731  97.6434 249.3699 0013198 318.3838  41.6386 15.10639862 64056
2025-013D               
1 62732U 25013D   26080.27538103  .00004699  00000+0  28760-3 0  9999
2 62732  97.6470 249.6758 0007937 339.5953  20.4958 15.10686532 64004
2025-013E               
1 62733U 25013E   26080.26230382  .00004187  00000+0  25844-3 0  9999
2 62733  97.6487 249.6226 0007613 326.6087  33.4661 15.10442075 63948
STARLINK-32806          
1 62735U 25014A   26079.72915857  .00019652  00000+0  72134-3 0  9995
2 62735  42.9993  92.2288 0001745 280.3314  79.7341 15.27598743 64945
STARLINK-32329          
1 62736U 25014B   26080.29837383  .00022258  00000+0  81516-3 0  9997
2 62736  42.9991  88.7508 0001198 260.2241  99.8476 15.27610903 65033
STARLINK-32774          
1 62737U 25014C   26079.76321395  .00027998  00000+0  10220-2 0  9998
2 62737  43.0013  95.0800 0001495 268.2518  91.8163 15.27615912 64918
STARLINK-32802          
1 62738U 25014D   26080.01625711  .00032741  00000+0  11931-2 0  9990
2 62738  42.9999  90.0724 0001035 244.2234 115.8511 15.27605198 64996
STARLINK-32796          
1 62739U 25014E   26079.75214248  .00022473  00000+0  82326-3 0  9997
2 62739  43.0016  91.5326 0001385 270.3790  89.6903 15.27597571 64952
STARLINK-32805          
1 62740U 25014F   26080.00614220  .00024186  00000+0  88452-3 0  9992
2 62740  42.9969  90.8661 0000368 184.7634 175.3215 15.27618018 64980
STARLINK-32770          
1 62741U 25014G   26079.30729976  .00019608  00000+0  71938-3 0  9993
2 62741  43.0013  94.2178 0001367 271.2274  88.8421 15.27615277 64886
STARLINK-32775          
1 62742U 25014H   26080.29965194  .00031751  00000+0  11574-2 0  9990
2 62742  42.9973  88.7593 0000825 238.3047 121.7725 15.27607824 65030
STARLINK-32800          
1 62743U 25014J   26079.74747236  .00024900  00000+0  91083-3 0  9996
2 62743  42.9987  99.2819 0000915  31.3875 328.7031 15.27597166 64860
STARLINK-32758          
1 62744U 25014K   26080.29916337  .00038265  00000+0  13905-2 0  9994
2 62744  42.9987  92.2201 0001166 239.6354 120.4383 15.27634571 64996
STARLINK-32746          
1 62745U 25014L   26079.74828594  .00018168  00000+0  66782-3 0  9992
2 62745  43.0070  91.5002 0001885 272.1068  87.9568 15.27594795 64956
