OBJECT_NAME,OBJECT_ID,EPOCH,MEAN_MOTION,ECCENTRICITY,INCLINATION,RA_OF_ASC_NODE,ARG_OF_PERICENTER,MEAN_ANOMALY,EPHEMERIS_TYPE,CLASSIFICATION_TYPE,NORAD_CAT_ID,ELEMENT_SET_NO,REV_AT_EPOCH,BSTAR,MEAN_MOTION_DOT,MEAN_MOTION_DDOT,OBJECT_TYPE
LEMUR-2-ALISIA,2025-009DB,2026-03-21T04:50:52.393056,15.01325754,.00066225,97.6994,163.0663,135.7187,224.4568,0,U,62706,999,8695,.63739234E-3,.8154E-4,0,Active
ICEYE-X44,2025-009DC,2026-03-21T04:22:03.394272,14.95463504,.00027874,97.7094,160.7266,83.1740,276.9798,0,U,62707,999,8678,.29102483E-3,.3163E-4,0,Active
CENTAURI-7,2025-009DD,2026-03-21T04:38:51.280512,14.97168764,.00020776,97.7124,161.6152,112.7721,247.3721,0,U,62708,999,6429,.29152497E-3,.3311E-4,0,Active
CONNECTA IOT-6,2025-009DE,2026-03-21T04:41:29.549760,14.94009906,.00029529,97.7060,160.2391,82.1280,278.0275,0,U,62709,999,6422,.79263166E-4,.789E-5,0,Active
FIREFLY-3,2025-009DF,2026-03-21T04:09:21.653856,14.92869440,.00063873,97.7095,160.1555,98.6667,261.5277,0,U,62710,999,6420,.14855869E-3,.1484E-4,0,Active
LEMUR-2-ROUNDTRIPPER,2025-009DG,2026-03-21T05:14:38.552064,15.02281302,.00061211,97.7285,163.1241,91.9392,268.2533,0,U,62711,999,6441,.71158206E-3,.9344E-4,0,Active
LEMUR-2-MYNAMEISJEFF,2025-009DH,2026-03-21T03:36:36.241344,15.02288562,.00053775,97.7330,163.3851,114.3228,245.8559,0,U,62712,999,6440,.72116394E-3,.9471E-4,0,Active
SATGUS,2025-009DJ,2026-03-21T05:56:35.236320,15.00034244,.00054561,97.7120,162.4038,63.5718,296.6064,0,U,62713,999,6437,.76326748E-3,.9451E-4,0,Active
CENTAURI-8,2025-009DK,2026-03-21T03:42:05.440032,14.97312505,.00028631,97.7069,161.4601,97.1179,263.0368,0,U,62714,999,6430,.33055231E-3,.3777E-4,0,Active
CONNECTA IOT-7,2025-009DL,2026-03-21T04:03:40.291776,14.93990951,.00027574,97.7114,160.5495,110.6775,249.4741,0,U,62715,999,6420,.13257937E-3,.1357E-4,0,Active
PRSC-EO1,2025-012A,2026-03-18T08:05:08.412288,15.17752694,.0006544,97.4293,151.5450,189.6633,170.4476,0,U,62725,999,6441,.34535E-3,.691E-4,0,Active
2025-012B,2025-012B,2026-03-21T03:55:14.078496,15.20327739,.00082965,97.4289,154.5046,215.2022,144.8666,0,U,62726,999,6487,.26210324E-3,.5636E-4,0,Active
2025-012C,2025-012C,2026-03-21T06:08:21.513120,15.25575660,.00074725,97.4307,156.2445,205.3357,154.7516,0,U,62727,999,6497,.54125067E-3,.13691E-3,0,Active
2025-013A,2025-013A,2026-03-21T05:31:59.551968,15.29954370,.00103232,97.6368,256.0726,242.8665,117.1523,0,U,62729,999,6448,.13258784E-2,.38584E-3,0,Active
2025-013B,2025-013B,2026-03-21T06:23:44.706624,15.10665174,.00123285,97.6487,249.6210,314.7724,45.2501,0,U,62730,999,6405,.29107449E-3,.4759E-4,0,Active
2025-013C,2025-013C,2026-03-21T06:00:54.255744,15.10639862,.00131989,97.6434,249.3699,318.3838,41.6386,0,U,62731,999,6405,.23660346E-3,.3854E-4,0,Active
2025-013D,2025-013D,2026-03-21T06:36:32.920992,15.10686532,.00079378,97.6470,249.6758,339.5953,20.4958,0,U,62732,999,6400,.28759622E-3,.4699E-4,0,Active
2025-013E,2025-013E,2026-03-21T06:17:43.050048,15.10442075,.00076133,97.6487,249.6226,326.6087,33.4661,0,U,62733,999,6394,.25843919E-3,.4187E-4,0,Active
STARLINK-32806,2025-014A,2026-03-20T17:29:59.300448,15.27598743,.00017457,42.9993,92.2288,280.3314,79.7341,0,U,62735,999,6494,.72133533E-3,.19652E-3,0,Active
STARLINK-32329,2025-014B,2026-03-21T07:09:39.498912,15.27610903,.00011985,42.9991,88.7508,260.2241,99.8476,0,U,62736,999,6503,.81516112E-3,.22258E-3,0,Active
STARLINK-32774,2025-014C,2026-03-20T18:19:01.685280,15.27615912,.00014951,43.0013,95.0800,268.2518,91.8163,0,U,62737,999,6491,.10219835E-2,.27998E-3,0,Active
STARLINK-32802,2025-014D,2026-03-21T00:23:24.614304,15.27605198,.00010357,42.9999,90.0724,244.2234,115.8511,0,U,62738,999,6499,.11931304E-2,.32741E-3,0,Active
STARLINK-32796,2025-014E,2026-03-20T18:03:05.110272,15.27597571,.00013856,43.0016,91.5326,270.3790,89.6903,0,U,62739,999,6495,.82326233E-3,.22473E-3,0,Active
STARLINK-32805,2025-014F,2026-03-21T00:08:50.686080,15.27618018,.00003688,42.9969,90.8661,184.7634,175.3215,0,U,62740,999,6498,.88451714E-3,.24186E-3,0,Active
STARLINK-32770,2025-014G,2026-03-20T07:22:30.699264,15.27615277,.0001367,43.0013,94.2178,271.2274,88.8421,0,U,62741,999,6488,.71938E-3,.19608E-3,0,Active
STARLINK-32775,2025-014H,2026-03-21T07:11:29.927616,15.27607824,.00008258,42.9973,88.7593,238.3047,121.7725,0,U,62742,999,6503,.11574072E-2,.31751E-3,0,Active
STARLINK-32800,2025-014J,2026-03-20T17:56:21.611904,15.27597166,.0000915,42.9987,99.2819,31.3875,328.7031,0,U,62743,999,6486,.91083E-3,.249E-3,0,Active
STARLINK-32758,2025-014K,2026-03-21T07:10:47.715168,15.27634571,.00011664,42.9987,92.2201,239.6354,120.4383,0,U,62744,999,6499,.13905304E-2,.38265E-3,0,Active
STARLINK-32746,2025-014L,2026-03-20T17:57:31.905216,15.27594795,.00018856,43.0070,91.5002,272.1068,87.9568,0,U,62745,999,6495,.66781949E-3,.18168E-3,0,Active
